CTC2_L_00410016-03
1 72705U 26692VL  26070.40847222  .00000000  00000+0  00000-0 0  9999
2 72705  55.0000 180.0000 0000000   0.0000   0.0000 12.65579349    14
CTC2_L_00410016-04
1 72706U 22590AU  26070.40847222  .00000000  00000+0  00000-0 0  9993
2 72706  55.0000 180.0000 0000000   0.0000  90.0000 12.65579349    14
CTC2_L_00410017-01
1 72707U 23671Q   26070.40847222  .00000000  00000+0  00000-0 0  9995
2 72707  55.0000 192.0000 0000000   0.0000 192.0000 12.65579349    11
CTC2_L_00410017-02
1 72708U 26111EI  26070.40847222  .00000000  00000+0  00000-0 0  9998
2 72708  55.0000 192.0000 0000000   0.0000 282.0000 12.65579349    12
CTC2_L_00410017-03
1 72709U 26451EG  26070.40847222  .00000000  00000+0  00000-0 0  9996
2 72709  55.0000 192.0000 0000000   0.0000  12.0000 12.65579349    14
CTC2_L_00410017-04
1 72710U 25211YS  26070.40847222  .00000000  00000+0  00000-0 0  9991
2 72710  55.0000 192.0000 0000000   0.0000 102.0000 12.65579349    16
CTC2_L_00410018-01
1 72711U 23138HR  26070.40847222  .00000000  00000+0  00000-0 0  9998
2 72711  55.0000 204.0000 0000000   0.0000 204.0000 12.65579349    14
CTC2_L_00410018-02
1 72712U 25135CI  26070.40847222  .00000000  00000+0  00000-0 0  9998
2 72712  55.0000 204.0000 0000000   0.0000 294.0000 12.65579349    14
CTC2_L_00410018-03
1 72713U 24324RC  26070.40847222  .00000000  00000+0  00000-0 0  9998
2 72713  55.0000 204.0000 0000000   0.0000  24.0000 12.65579349    16
CTC2_L_00410018-04
1 72714U 23919QB  26070.40847222  .00000000  00000+0  00000-0 0  9998
2 72714  55.0000 204.0000 0000000   0.0000 114.0000 12.65579349    17
CTC2_L_00410019-01
1 72715U 22233HP  26070.40847222  .00000000  00000+0  00000-0 0  9997
2 72715  55.0000 216.0000 0000000   0.0000 216.0000 12.65579349    14
CTC2_L_00410019-02
1 72716U 24210QQ  26070.40847222  .00000000  00000+0  00000-0 0  9995
2 72716  55.0000 216.0000 0000000   0.0000 306.0000 12.65579349    15
CTC2_L_00410019-03
1 72717U 26101EA  26070.40847222  .00000000  00000+0  00000-0 0  9997
2 72717  55.0000 216.0000 0000000   0.0000  36.0000 12.65579349    16
CTC2_L_00410019-04
1 72718U 24423LZ  26070.40847222  .00000000  00000+0  00000-0 0  9993
2 72718  55.0000 216.0000 0000000   0.0000 126.0000 12.65579349    17
CTC2_L_00410020-01
1 72719U 25399CL  26070.40847222  .00000000  00000+0  00000-0 0  9997
2 72719  55.0000 228.0000 0000000   0.0000 228.0000 12.65579349    14
CTC2_L_00410020-02
1 72720U 25697OD  26070.40847222  .00000000  00000+0  00000-0 0  9990
2 72720  55.0000 228.0000 0000000   0.0000 318.0000 12.65579349    16
CTC2_L_00410020-03
1 72721U 24566LL  26070.40847222  .00000000  00000+0  00000-0 0  9995
2 72721  55.0000 228.0000 0000000   0.0000  48.0000 12.65579349    17
CTC2_L_00410020-04
1 72722U 26623QH  26070.40847222  .00000000  00000+0  00000-0 0  9992
2 72722  55.0000 228.0000 0000000   0.0000 138.0000 12.65579349    18
CTC2_L_00410021-01
1 72723U 22882VD  26070.40847222  .00000000  00000+0  00000-0 0  9996
2 72723  55.0000 240.0000 0000000   0.0000 240.0000 12.65579349    17
CTC2_L_00410021-02
1 72724U 25855JX  26070.40847222  .00000000  00000+0  00000-0 0  9990
2 72724  55.0000 240.0000 0000000   0.0000 330.0000 12.65579349    18
CTC2_L_00410021-03
1 72725U 26444SK  26070.40847222  .00000000  00000+0  00000-0 0  9996
2 72725  55.0000 240.0000 0000000   0.0000  60.0000 12.65579349    19
CTC2_L_00410021-04
1 72726U 22987TY  26070.40847222  .00000000  00000+0  00000-0 0  9995
2 72726  55.0000 240.0000 0000000   0.0000 150.0000 12.65579349    10
CTC2_L_00410022-01
1 72727U 25087CC  26070.40847222  .00000000  00000+0  00000-0 0  9990
2 72727  55.0000 252.0000 0000000   0.0000 252.0000 12.65579349    17
CTC2_L_00410022-02
1 72728U 23137U   26070.40847222  .00000000  00000+0  00000-0 0  9995
2 72728  55.0000 252.0000 0000000   0.0000 342.0000 12.65579349    18
CTC2_L_00410022-03
1 72729U 23475AY  26070.40847222  .00000000  00000+0  00000-0 0  9991
2 72729  55.0000 252.0000 0000000   0.0000  72.0000 12.65579349    19
CTC2_L_00410022-04
1 72730U 24820DV  26070.40847222  .00000000  00000+0  00000-0 0  9998
2 72730  55.0000 252.0000 0000000   0.0000 162.0000 12.65579349    11
CTC2_L_00410023-01
1 72731U 25446XA  26070.40847222  .00000000  00000+0  00000-0 0  9994
2 72731  55.0000 264.0000 0000000   0.0000 264.0000 12.65579349    18
CTC2_L_00410023-02
1 72732U 23218SA  26070.40847222  .00000000  00000+0  00000-0 0  9990
2 72732  55.0000 264.0000 0000000   0.0000 354.0000 12.65579349    19
CTC2_L_00410023-03
1 72733U 25803UT  26070.40847222  .00000000  00000+0  00000-0 0  9993
2 72733  55.0000 264.0000 0000000   0.0000  84.0000 12.65579349    10
CTC2_L_00410023-04
1 72734U 22886S   26070.40847222  .00000000  00000+0  00000-0 0  9992
2 72734  55.0000 264.0000 0000000   0.0000 174.0000 12.65579349    11
CTC2_L_00410024-01
1 72735U 25902QW  26070.40847222  .00000000  00000+0  00000-0 0  9995
2 72735  55.0000 276.0000 0000000   0.0000 276.0000 12.65579349    18
CTC2_L_00410024-02
1 72736U 24830KB  26070.40847222  .00000000  00000+0  00000-0 0  9995
2 72736  55.0000 276.0000 0000000   0.0000   6.0000 12.65579349    10
CTC2_L_00410024-03
1 72737U 26589XH  26070.40847222  .00000000  00000+0  00000-0 0  9999
2 72737  55.0000 276.0000 0000000   0.0000  96.0000 12.65579349    10
CTC2_L_00410024-04
1 72738U 26589OF  26070.40847222  .00000000  00000+0  00000-0 0  9990
2 72738  55.0000 276.0000 0000000   0.0000 186.0000 12.65579349    11
CTC2_L_00410025-01
1 72739U 25272ID  26070.40847222  .00000000  00000+0  00000-0 0  9999
2 72739  55.0000 288.0000 0000000   0.0000 288.0000 12.65579349    18
CTC2_L_00410025-02
1 72740U 22247PS  26070.40847222  .00000000  00000+0  00000-0 0  9990
2 72740  55.0000 288.0000 0000000   0.0000  18.0000 12.65579349    11
CTC2_L_00410025-03
1 72741U 24012WJ  26070.40847222  .00000000  00000+0  00000-0 0  9993
2 72741  55.0000 288.0000 0000000   0.0000 108.0000 12.65579349    12
CTC2_L_00410025-04
1 72742U 22753SO  26070.40847222  .00000000  00000+0  00000-0 0  9994
2 72742  55.0000 288.0000 0000000   0.0000 198.0000 12.65579349    12
CTC2_L_00410026-01
1 72743U 25542NC  26070.40847222  .00000000  00000+0  00000-0 0  9994
2 72743  55.0000 300.0000 0000000   0.0000 300.0000 12.65579349    13
CTC2_L_00410026-02
1 72744U 25783UX  26070.40847222  .00000000  00000+0  00000-0 0  9992
2 72744  55.0000 300.0000 0000000   0.0000  30.0000 12.65579349    14
CTC2_L_00410026-03
1 72745U 22984SZ  26070.40847222  .00000000  00000+0  00000-0 0  9993
2 72745  55.0000 300.0000 0000000   0.0000 120.0000 12.65579349    15
CTC2_L_00410026-04
1 72746U 24742WB  26070.40847222  .00000000  00000+0  00000-0 0  9998
2 72746  55.0000 300.0000 0000000   0.0000 210.0000 12.65579349    16
CTC2_L_00410027-01
1 72747U 26042QY  26070.40847222  .00000000  00000+0  00000-0 0  9994
2 72747  55.0000 312.0000 0000000   0.0000 312.0000 12.65579349    13
CTC2_L_00410027-02
1 72748U 25905IR  26070.40847222  .00000000  00000+0  00000-0 0  9992
2 72748  55.0000 312.0000 0000000   0.0000  42.0000 12.65579349    14
CTC2_L_00410027-03
1 72749U 22778NO  26070.40847222  .00000000  00000+0  00000-0 0  9998
2 72749  55.0000 312.0000 0000000   0.0000 132.0000 12.65579349    15
CTC2_L_00410027-04
1 72750U 24819QK  26070.40847222  .00000000  00000+0  00000-0 0  9998
2 72750  55.0000 312.0000 0000000   0.0000 222.0000 12.65579349    17
CTC2_L_00410028-01
1 72751U 25812WZ  26070.40847222  .00000000  00000+0  00000-0 0  9993
2 72751  55.0000 324.0000 0000000   0.0000 324.0000 12.65579349    14
CTC2_L_00410028-02
1 72752U 22698CJ  26070.40847222  .00000000  00000+0  00000-0 0  9993
2 72752  55.0000 324.0000 0000000   0.0000  54.0000 12.65579349    15
CTC2_L_00410028-03
1 72753U 24306BX  26070.40847222  .00000000  00000+0  00000-0 0  9992
2 72753  55.0000 324.0000 0000000   0.0000 144.0000 12.65579349    16
CTC2_L_00410028-04
1 72754U 24531UM  26070.40847222  .00000000  00000+0  00000-0 0  9993
2 72754  55.0000 324.0000 0000000   0.0000 234.0000 12.65579349    17
CTC2_L_00410029-01
1 72755U 24413B   26070.40847222  .00000000  00000+0  00000-0 0  9993
2 72755  55.0000 336.0000 0000000   0.0000 336.0000 12.65579349    14
CTC2_L_00410029-02
1 72756U 24201UB  26070.40847222  .00000000  00000+0  00000-0 0  9999
2 72756  55.0000 336.0000 0000000   0.0000  66.0000 12.65579349    15
CTC2_L_00410029-03
1 72757U 23242WW  26070.40847222  .00000000  00000+0  00000-0 0  9994
2 72757  55.0000 336.0000 0000000   0.0000 156.0000 12.65579349    16
CTC2_L_00410029-04
1 72758U 23873CY  26070.40847222  .00000000  00000+0  00000-0 0  9995
2 72758  55.0000 336.0000 0000000   0.0000 246.0000 12.65579349    17
CTC2_L_00410030-01
1 72759U 24225BN  26070.40847222  .00000000  00000+0  00000-0 0  9998
2 72759  55.0000 348.0000 0000000   0.0000 348.0000 12.65579349    14
CTC2_L_00410030-02
1 72760U 24892DR  26070.40847222  .00000000  00000+0  00000-0 0  9990
2 72760  55.0000 348.0000 0000000   0.0000  78.0000 12.65579349    16
CTC2_L_00410030-03
1 72761U 23130GC  26070.40847222  .00000000  00000+0  00000-0 0  9995
2 72761  55.0000 348.0000 0000000   0.0000 168.0000 12.65579349    17
CTC2_L_00410030-04
1 72762U 26844ET  26070.40847222  .00000000  00000+0  00000-0 0  9991
2 72762  55.0000 348.0000 0000000   0.0000 258.0000 12.65579349    18
